[{"OBJECT_NAME":"SAUDISAT 5B","OBJECT_ID":"2018-102C","EPOCH":"2026-03-09T22:59:17.457216","MEAN_MOTION":15.27248504,"ECCENTRICITY":0.00120577,"INCLINATION":97.3281,"RA_OF_ASC_NODE":135.3629,"ARG_OF_PERICENTER":124.0958,"MEAN_ANOMALY":236.1427,"EPHEMERIS_TYPE":0,"CLASSIFICATION_TYPE":"U","NORAD_CAT_ID":43833,"ELEMENT_SET_NO":999,"REV_AT_EPOCH":40064,"BSTAR":0.00024926623,"MEAN_MOTION_DOT":6.596e-5,"MEAN_MOTION_DDOT":0},{"OBJECT_NAME":"STARLINK-30876","OBJECT_ID":"2023-180C","EPOCH":"2026-03-09T22:00:01.999584","MEAN_MOTION":15.27561504,"ECCENTRICITY":0.00018441,"INCLINATION":43.0029,"RA_OF_ASC_NODE":51.5147,"ARG_OF_PERICENTER":264.9735,"MEAN_ANOMALY":247.5647,"EPHEMERIS_TYPE":0,"CLASSIFICATION_TYPE":"U","NORAD_CAT_ID":58404,"ELEMENT_SET_NO":999,"REV_AT_EPOCH":578,"BSTAR":0.0014677536,"MEAN_MOTION_DOT":0.00040326,"MEAN_MOTION_DDOT":0}]
